CCSDS_OMM_VERS = 2.0
CREATION_DATE  = 
ORIGINATOR     = 

OBJECT_NAME    = SL-3 R/B
OBJECT_ID      = 1982-079B
CENTER_NAME    = EARTH
REF_FRAME      = TEME
TIME_SYSTEM    = UTC
MEAN_ELEMENT_THEORY = SGP/SGP4

EPOCH          = 2026-01-25T20:55:06.277152
MEAN_MOTION    = 15.24186488
ECCENTRICITY   = .0024536
INCLINATION    = 81.1447
RA_OF_ASC_NODE = 243.6187
ARG_OF_PERICENTER = 313.0416
MEAN_ANOMALY   = 46.8762

EPHEMERIS_TYPE = 0
CLASSIFICATION_TYPE = U
NORAD_CAT_ID   = 13403
ELEMENT_SET_NO = 999
REV_AT_EPOCH   = 37117
BSTAR          = .33014E-3
MEAN_MOTION_DOT = .8134E-4
MEAN_MOTION_DDOT = 0

CCSDS_OMM_VERS = 2.0
CREATION_DATE  = 
ORIGINATOR     = 

OBJECT_NAME    = SL-14 R/B
OBJECT_ID      = 1982-092B
CENTER_NAME    = EARTH
REF_FRAME      = TEME
TIME_SYSTEM    = UTC
MEAN_ELEMENT_THEORY = SGP/SGP4

EPOCH          = 2026-01-25T20:13:23.938752
MEAN_MOTION    = 14.86612318
ECCENTRICITY   = .0021857
INCLINATION    = 82.5684
RA_OF_ASC_NODE = 181.4635
ARG_OF_PERICENTER = 83.8947
MEAN_ANOMALY   = 12.6978

EPHEMERIS_TYPE = 0
CLASSIFICATION_TYPE = U
NORAD_CAT_ID   = 13553
ELEMENT_SET_NO = 999
REV_AT_EPOCH   = 32256
BSTAR          = .10749E-3
MEAN_MOTION_DOT = .982E-5
MEAN_MOTION_DDOT = 0

CCSDS_OMM_VERS = 2.0
CREATION_DATE  = 
ORIGINATOR     = 

OBJECT_NAME    = SL-3 R/B
OBJECT_ID      = 1983-010B
CENTER_NAME    = EARTH
REF_FRAME      = TEME
TIME_SYSTEM    = UTC
MEAN_ELEMENT_THEORY = SGP/SGP4

EPOCH          = 2026-01-25T12:19:21.792288
MEAN_MOTION    = 15.44836957
ECCENTRICITY   = .00167882
INCLINATION    = 81.1021
RA_OF_ASC_NODE = 55.1277
ARG_OF_PERICENTER = 192.3167
MEAN_ANOMALY   = 167.7669

EPHEMERIS_TYPE = 0
CLASSIFICATION_TYPE = U
NORAD_CAT_ID   = 13819
ELEMENT_SET_NO = 999
REV_AT_EPOCH   = 35127
BSTAR          = .39973831E-3
MEAN_MOTION_DOT = .18887E-3
MEAN_MOTION_DDOT = 0

CCSDS_OMM_VERS = 2.0
CREATION_DATE  = 
ORIGINATOR     = 

OBJECT_NAME    = SL-3 R/B
OBJECT_ID      = 1983-075B
CENTER_NAME    = EARTH
REF_FRAME      = TEME
TIME_SYSTEM    = UTC
MEAN_ELEMENT_THEORY = SGP/SGP4

EPOCH          = 2026-01-25T19:22:35.020128
MEAN_MOTION    = 15.37247706
ECCENTRICITY   = .0023141
INCLINATION    = 97.6129
RA_OF_ASC_NODE = 28.8091
ARG_OF_PERICENTER = 28.0783
MEAN_ANOMALY   = 332.1703

EPHEMERIS_TYPE = 0
CLASSIFICATION_TYPE = U
NORAD_CAT_ID   = 14208
ELEMENT_SET_NO = 999
REV_AT_EPOCH   = 32356
BSTAR          = .47436E-3
MEAN_MOTION_DOT = .17393E-3
MEAN_MOTION_DDOT = 0

CCSDS_OMM_VERS = 2.0
CREATION_DATE  = 
ORIGINATOR     = 

OBJECT_NAME    = COSMOS 1536
OBJECT_ID      = 1984-013A
CENTER_NAME    = EARTH
REF_FRAME      = TEME
TIME_SYSTEM    = UTC
MEAN_ELEMENT_THEORY = SGP/SGP4

EPOCH          = 2026-01-25T18:22:37.639488
MEAN_MOTION    = 15.23200057
ECCENTRICITY   = .0015691
INCLINATION    = 82.5466
RA_OF_ASC_NODE = 150.4841
ARG_OF_PERICENTER = 75.5943
MEAN_ANOMALY   = 284.7034

EPHEMERIS_TYPE = 0
CLASSIFICATION_TYPE = U
NORAD_CAT_ID   = 14699
ELEMENT_SET_NO = 999
REV_AT_EPOCH   = 26608
BSTAR          = .42691E-3
MEAN_MOTION_DOT = .10164E-3
MEAN_MOTION_DDOT = 0

CCSDS_OMM_VERS = 2.0
CREATION_DATE  = 
ORIGINATOR     = 

OBJECT_NAME    = SL-14 R/B
OBJECT_ID      = 1984-027B
CENTER_NAME    = EARTH
REF_FRAME      = TEME
TIME_SYSTEM    = UTC
MEAN_ELEMENT_THEORY = SGP/SGP4

EPOCH          = 2026-01-25T17:32:58.023168
MEAN_MOTION    = 14.85931156
ECCENTRICITY   = .0019397
INCLINATION    = 82.5422
RA_OF_ASC_NODE = 285.3076
ARG_OF_PERICENTER = 113.5741
MEAN_ANOMALY   = 246.7515

EPHEMERIS_TYPE = 0
CLASSIFICATION_TYPE = U
NORAD_CAT_ID   = 14820
ELEMENT_SET_NO = 999
REV_AT_EPOCH   = 24125
BSTAR          = .89256E-4
MEAN_MOTION_DOT = .805E-5
MEAN_MOTION_DDOT = 0

CCSDS_OMM_VERS = 2.0
CREATION_DATE  = 
ORIGINATOR     = 

OBJECT_NAME    = SL-8 R/B
OBJECT_ID      = 1985-006B
CENTER_NAME    = EARTH
REF_FRAME      = TEME
TIME_SYSTEM    = UTC
MEAN_ELEMENT_THEORY = SGP/SGP4

EPOCH          = 2026-01-25T20:36:12.977856
MEAN_MOTION    = 14.37757761
ECCENTRICITY   = .0019764
INCLINATION    = 74.0474
RA_OF_ASC_NODE = 339.9575
ARG_OF_PERICENTER = 265.2802
MEAN_ANOMALY   = 115.9701

EPHEMERIS_TYPE = 0
CLASSIFICATION_TYPE = U
NORAD_CAT_ID   = 15483
ELEMENT_SET_NO = 999
REV_AT_EPOCH   = 14787
BSTAR          = .18945E-3
MEAN_MOTION_DOT = .545E-5
MEAN_MOTION_DDOT = 0

CCSDS_OMM_VERS = 2.0
CREATION_DATE  = 
ORIGINATOR     = 

OBJECT_NAME    = SL-12 R/B(2)
OBJECT_ID      = 1985-042D
CENTER_NAME    = EARTH
REF_FRAME      = TEME
TIME_SYSTEM    = UTC
MEAN_ELEMENT_THEORY = SGP/SGP4

EPOCH          = 2026-01-25T16:52:13.819008
MEAN_MOTION    = 14.21967794
ECCENTRICITY   = .0035813
INCLINATION    = 71.1072
RA_OF_ASC_NODE = 178.5432
ARG_OF_PERICENTER = 196.0833
MEAN_ANOMALY   = 174.9104

EPHEMERIS_TYPE = 0
CLASSIFICATION_TYPE = U
NORAD_CAT_ID   = 15772
ELEMENT_SET_NO = 999
REV_AT_EPOCH   = 10828
BSTAR          = .10682E-3
MEAN_MOTION_DOT = .19E-5
MEAN_MOTION_DDOT = 0

CCSDS_OMM_VERS = 2.0
CREATION_DATE  = 
ORIGINATOR     = 

OBJECT_NAME    = SL-14 R/B
OBJECT_ID      = 1985-069B
CENTER_NAME    = EARTH
REF_FRAME      = TEME
TIME_SYSTEM    = UTC
MEAN_ELEMENT_THEORY = SGP/SGP4

EPOCH          = 2026-01-25T12:38:59.000064
MEAN_MOTION    = 14.86380136
ECCENTRICITY   = .0018202
INCLINATION    = 82.5245
RA_OF_ASC_NODE = 65.5316
ARG_OF_PERICENTER = 340.0448
MEAN_ANOMALY   = 20.0054

EPHEMERIS_TYPE = 0
CLASSIFICATION_TYPE = U
NORAD_CAT_ID   = 15945
ELEMENT_SET_NO = 999
REV_AT_EPOCH   = 16642
BSTAR          = .86241E-4
MEAN_MOTION_DOT = .787E-5
MEAN_MOTION_DDOT = 0

CCSDS_OMM_VERS = 2.0
CREATION_DATE  = 
ORIGINATOR     = 

OBJECT_NAME    = SL-16 R/B
OBJECT_ID      = 1985-097B
CENTER_NAME    = EARTH
REF_FRAME      = TEME
TIME_SYSTEM    = UTC
MEAN_ELEMENT_THEORY = SGP/SGP4

EPOCH          = 2026-01-25T19:58:41.837088
MEAN_MOTION    = 14.16590970
ECCENTRICITY   = .0009018
INCLINATION    = 71.0000
RA_OF_ASC_NODE = 230.7771
ARG_OF_PERICENTER = 310.2536
MEAN_ANOMALY   = 61.2955

EPHEMERIS_TYPE = 0
CLASSIFICATION_TYPE = U
NORAD_CAT_ID   = 16182
ELEMENT_SET_NO = 999
REV_AT_EPOCH   = 8116
BSTAR          = .45327E-4
MEAN_MOTION_DOT = .43E-6
MEAN_MOTION_DDOT = 0

CCSDS_OMM_VERS = 2.0
CREATION_DATE  = 
ORIGINATOR     = 

OBJECT_NAME    = SL-14 R/B
OBJECT_ID      = 1986-006B
CENTER_NAME    = EARTH
REF_FRAME      = TEME
TIME_SYSTEM    = UTC
MEAN_ELEMENT_THEORY = SGP/SGP4

EPOCH          = 2026-01-25T17:12:53.900928
MEAN_MOTION    = 14.86746624
ECCENTRICITY   = .0078006
INCLINATION    = 82.5286
RA_OF_ASC_NODE = 300.1783
ARG_OF_PERICENTER = 55.7939
MEAN_ANOMALY   = 305.0638

EPHEMERIS_TYPE = 0
CLASSIFICATION_TYPE = U
NORAD_CAT_ID   = 16496
ELEMENT_SET_NO = 999
REV_AT_EPOCH   = 14282
BSTAR          = .13654E-3
MEAN_MOTION_DOT = .1311E-4
MEAN_MOTION_DDOT = 0

CCSDS_OMM_VERS = 2.0
CREATION_DATE  = 
ORIGINATOR     = 

OBJECT_NAME    = COSMOS 1743
OBJECT_ID      = 1986-034A
CENTER_NAME    = EARTH
REF_FRAME      = TEME
TIME_SYSTEM    = UTC
MEAN_ELEMENT_THEORY = SGP/SGP4

EPOCH          = 2026-01-25T17:01:36.127488
MEAN_MOTION    = 15.55324400
ECCENTRICITY   = .0005432
INCLINATION    = 82.5348
RA_OF_ASC_NODE = 118.8213
ARG_OF_PERICENTER = 93.2735
MEAN_ANOMALY   = 266.9141

EPHEMERIS_TYPE = 0
CLASSIFICATION_TYPE = U
NORAD_CAT_ID   = 16719
ELEMENT_SET_NO = 999
REV_AT_EPOCH   = 17356
BSTAR          = .65947E-3
MEAN_MOTION_DOT = .4496E-3
MEAN_MOTION_DDOT = 0

